$$SOE
2461295.500000000, A.D. 2026-Sep-12 00:00:00.0000, -3.004007018224170E+08, 1.147001330449608E+07, -9.708332839077130E+07,
2461302.500000000, A.D. 2026-Sep-19 00:00:00.0000, -3.003764191978039E+08, -3.447602816668078E+05, -9.691514623520531E+07,
2461309.500000000, A.D. 2026-Sep-26 00:00:00.0000, -2.998884262617548E+08, -1.215894192108418E+07, -9.659733074095199E+07,
2461316.500000000, A.D. 2026-Oct-03 00:00:00.0000, -2.989360327137060E+08, -2.395423788029077E+07, -9.612990807020013E+07,
2461323.500000000, A.D. 2026-Oct-10 00:00:00.0000, -2.975190718146108E+08, -3.571225388361730E+07, -9.551307485802650E+07,
2461330.500000000, A.D. 2026-Oct-17 00:00:00.0000, -2.956379093185722E+08, -4.741450000399810E+07, -9.474720100360045E+07,
2461337.500000000, A.D. 2026-Oct-24 00:00:00.0000, -2.932934534124045E+08, -5.904239621533605E+07, -9.383283278332077E+07,
2461344.500000000, A.D. 2026-Oct-31 00:00:00.0000, -2.904871655589324E+08, -7.057727878086722E+07, -9.277069629682960E+07,
2461351.500000000, A.D. 2026-Nov-07 00:00:00.0000, -2.872210718949904E+08, -8.200040751514763E+07, -9.156170126583442E+07,
2461358.500000000, A.D. 2026-Nov-14 00:00:00.0000, -2.834977749672626E+08, -9.329297314804733E+07, -9.020694512425068E+07,
2461365.500000000, A.D. 2026-Nov-21 00:00:00.0000, -2.793204675943686E+08, -1.044361042300242E+08, -8.870771716790365E+07,
2461372.500000000, A.D. 2026-Nov-28 00:00:00.0000, -2.746929498247947E+08, -1.154108767151739E+08, -8.706550290779667E+07,
2461379.500000000, A.D. 2026-Dec-05 00:00:00.0000, -2.696196453396875E+08, -1.261983270113939E+08, -8.528198900228149E+07,
2461386.500000000, A.D. 2026-Dec-12 00:00:00.0000, -2.641056170943134E+08, -1.367794655198639E+08, -8.335906851337637E+07,
2461393.500000000, A.D. 2026-Dec-19 00:00:00.0000, -2.581565840283068E+08, -1.471352907941011E+08, -8.129884629051195E+07,
2461400.500000000, A.D. 2026-Dec-26 00:00:00.0000, -2.517789389164757E+08, -1.572468053323207E+08, -7.910364451327956E+07,
2461407.500000000, A.D. 2027-Jan-02 00:00:00.0000, -2.449797670051060E+08, -1.670950333476403E+08, -7.677600840775511E+07,
2461414.500000000, A.D. 2027-Jan-09 00:00:00.0000, -2.377668652280468E+08, -1.766610406520828E+08, -7.431871211636102E+07,
2461421.500000000, A.D. 2027-Jan-16 00:00:00.0000, -2.301487618633868E+08, -1.859259568026295E+08, -7.173476468833967E+07,
2461428.500000000, A.D. 2027-Jan-23 00:00:00.0000, -2.221347364627147E+08, -1.948709997083785E+08, -6.902741615643081E+07,
2461435.500000000, A.D. 2027-Jan-30 00:00:00.0000, -2.137348397246658E+08, -2.034775029083864E+08, -6.620016367349137E+07,
2461442.500000000, A.D. 2027-Feb-06 00:00:00.0000, -2.049599127286152E+08, -2.117269453424498E+08, -6.325675766720079E+07,
2461449.500000000, A.D. 2027-Feb-13 00:00:00.0000, -1.958216058091743E+08, -2.196009825543598E+08, -6.020120781095806E+07,
2461456.500000000, A.D. 2027-Feb-20 00:00:00.0000, -1.863323992326853E+08, -2.270814802707776E+08, -5.703778859001806E+07,
2461463.500000000, A.D. 2027-Feb-27 00:00:00.0000, -1.765056240528208E+08, -2.341505537122076E+08, -5.377104477477565E+07,
2461470.500000000, A.D. 2027-Mar-06 00:00:00.0000, -1.663554798720200E+08, -2.407906108417720E+08, -5.040579682986680E+07,
2461477.500000000, A.D. 2027-Mar-13 00:00:00.0000, -1.558970508147058E+08, -2.469843976128371E+08, -4.694714584159504E+07,
2461484.500000000, A.D. 2027-Mar-20 00:00:00.0000, -1.451463205081914E+08, -2.527150461499474E+08, -4.340047782046752E+07,
2461491.500000000, A.D. 2027-Mar-27 00:00:00.0000, -1.341201855101916E+08, -2.579661265028265E+08, -3.977146733486943E+07,
2461498.500000000, A.D. 2027-Apr-03 00:00:00.0000, -1.228364666041399E+08, -2.627217020921357E+08, -3.606608038722357E+07,
2461505.500000000, A.D. 2027-Apr-10 00:00:00.0000, -1.113139175060846E+08, -2.669663888616296E+08, -3.229057641394608E+07,
2461512.500000000, A.D. 2027-Apr-17 00:00:00.0000, -9.957223053964010E+07, -2.706854181444805E+08, -2.845150927477668E+07,
2461519.500000000, A.D. 2027-Apr-24 00:00:00.0000, -8.763203874536696E+07, -2.738647032488390E+08, -2.455572709278440E+07,
2461526.500000000, A.D. 2027-May-01 00:00:00.0000, -7.551491363821170E+07, -2.764909096255430E+08, -2.061037081067865E+07,
2461533.500000000, A.D. 2027-May-08 00:00:00.0000, -6.324335779365034E+07, -2.785515277050924E+08, -1.662287126588315E+07,
2461540.500000000, A.D. 2027-May-15 00:00:00.0000, -5.084079322955938E+07, -2.800349472228289E+08, -1.260094440114085E+07,
2461547.500000000, A.D. 2027-May-22 00:00:00.0000, -3.833154660488749E+07, -2.809305353256201E+08, -8.552584509303331E+06,
2461554.500000000, A.D. 2027-May-29 00:00:00.0000, -2.574082733186256E+07, -2.812287195592232E+08, -4.486055770855814E+06,
2461561.500000000, A.D. 2027-Jun-05 00:00:00.0000, -1.309469717817622E+07, -2.809210721593339E+08, -4.098817414145619E+05,
2461568.500000000, A.D. 2027-Jun-12 00:00:00.0000, -4.200328468702252E+05, -2.800003946795663E+08, 3.667167595223367E+06,
2461575.500000000, A.D. 2027-Jun-19 00:00:00.0000, 1.225551862482189E+07, -2.784608032588389E+08, 7.736091320321321E+06,
2461582.500000000, A.D. 2027-Jun-26 00:00:00.0000, 2.490359237296132E+07, -2.762978140526469E+08, 1.178767571746598E+07,
2461589.500000000, A.D. 2027-Jul-03 00:00:00.0000, 3.749516664470906E+07, -2.735084279718775E+08, 1.581251516485211E+07,
2461596.500000000, A.D. 2027-Jul-10 00:00:00.0000, 5.000063253724176E+07, -2.700912137660658E+08, 1.980103587000190E+07,
2461603.500000000, A.D. 2027-Jul-17 00:00:00.0000, 6.238987284102357E+07, -2.660463884536901E+08, 2.374352249431647E+07,
2461610.500000000, A.D. 2027-Jul-24 00:00:00.0000, 7.463235031614591E+07, -2.613758940682394E+08, 2.763014766911855E+07,
2461617.500000000, A.D. 2027-Jul-31 00:00:00.0000, 8.669720585773784E+07, -2.560834693369178E+08, 3.145100437431619E+07,
2461624.500000000, A.D. 2027-Aug-07 00:00:00.0000, 9.855336624425508E+07, -2.501747139358310E+08, 3.519614124481878E+07,
2461631.500000000, A.D. 2027-Aug-14 00:00:00.0000, 1.101696588989820E+08, -2.436571443174712E+08, 3.885560090101518E+07,
2461638.500000000, A.D. 2027-Aug-21 00:00:00.0000, 1.215149338458438E+08, -2.365402431806640E+08, 4.241946082156660E+07,
2461645.500000000, A.D. 2027-Aug-28 00:00:00.0000, 1.325581956818057E+08, -2.288355000847319E+08, 4.587787633281386E+07,
2461652.500000000, A.D. 2027-Sep-04 00:00:00.0000, 1.432687435946531E+08, -2.205564394444010E+08, 4.922112575836089E+07,
2461659.500000000, A.D. 2027-Sep-11 00:00:00.0000, 1.536163170531703E+08, -2.117186353669209E+08, 5.243965747200270E+07,
2461666.500000000, A.D. 2027-Sep-18 00:00:00.0000, 1.635712461397782E+08, -2.023397128760619E+08, 5.552413839768627E+07,
2461673.500000000, A.D. 2027-Sep-25 00:00:00.0000, 1.731046054128937E+08, -1.924393346255352E+08, 5.846550348205227E+07,
2461680.500000000, A.D. 2027-Oct-02 00:00:00.0000, 1.821883698656592E+08, -1.820391722644661E+08, 6.125500563686258E+07,
2461687.500000000, A.D. 2027-Oct-09 00:00:00.0000, 1.907955713450660E+08, -1.711628618468359E+08, 6.388426560521053E+07,
2461694.500000000, A.D. 2027-Oct-16 00:00:00.0000, 1.989004537110497E+08, -1.598359429503025E+08, 6.634532115764762E+07,
2461701.500000000, A.D. 2027-Oct-23 00:00:00.0000, 2.064786251251780E+08, -1.480857813670904E+08, 6.863067498327088E+07,
2461708.500000000, A.D. 2027-Oct-30 00:00:00.0000, 2.135072059289288E+08, -1.359414748898672E+08, 7.073334067482153E+07,
2461715.500000000, A.D. 2027-Nov-06 00:00:00.0000, 2.199649690198594E+08, -1.234337414955679E+08, 7.264688639617763E+07,
2461722.500000000, A.D. 2027-Nov-13 00:00:00.0000, 2.258324688329327E+08, -1.105947927268233E+08, 7.436547564207280E+07,
2461729.500000000, A.D. 2027-Nov-20 00:00:00.0000, 2.310921599952587E+08, -9.745819545943373E+07, 7.588390406494656E+07,
2461736.500000000, A.D. 2027-Nov-27 00:00:00.0000, 2.357285055691799E+08, -8.405872037076508E+07, 7.719763193048768E+07,
2461743.500000000, A.D. 2027-Dec-04 00:00:00.0000, 2.397280713299190E+08, -7.043217774002957E+07, 7.830281199362475E+07,
2461750.500000000, A.D. 2027-Dec-11 00:00:00.0000, 2.430796042031284E+08, -5.661524332411528E+07, 7.919631236885086E+07,
2461757.500000000, A.D. 2027-Dec-18 00:00:00.0000, 2.457740940529323E+08, -4.264527662398651E+07, 7.987573402120890E+07,
2461764.500000000, A.D. 2027-Dec-25 00:00:00.0000, 2.478048181558163E+08, -2.856013367001365E+07, 8.033942262454522E+07,
2461771.500000000, A.D. 2028-Jan-01 00:00:00.0000, 2.491673678750435E+08, -1.439797653243493E+07, 8.058647463179062E+07,
$$EOE